ORBCOMM-X               
1 21576U 91050C   24302.17153197  .00001618  00000+0  49770-3 0  9996
2 21576  98.3755   7.1804 0004103 152.7922 207.3484 14.42853460748875
ORBCOMM FM01            
1 23545U 95017A   24302.22765370  .00024025  00000+0  28610-2 0  9995
2 23545  69.9648 290.3370 0008220 308.0654  51.9755 14.84263643578367
ORBCOMM FM02            
1 23546U 95017B   24302.29212856  .00026263  00000+0  31375-2 0  9997
2 23546  69.9675 309.8425 0010363 307.9532  52.0682 14.84091687577962
ORBCOMM FM08            
1 25112U 97084A   24302.44918874  .00008525  00000+0  25060-2 0  9999
2 25112  45.0151  39.0128 0007266 176.4230 183.6674 14.44042555408029
ORBCOMM FM10            
1 25113U 97084B   24302.53848686  .00007824  00000+0  23106-2 0  9993
2 25113  45.0164  40.6055 0004167 154.6111 205.4945 14.43908713408024
ORBCOMM FM11            
1 25114U 97084C   24302.02125649  .00007396  00000+0  21955-2 0  9999
2 25114  45.0147  43.3239 0004936 147.7230 212.3923 14.43711213407938
ORBCOMM FM12            
1 25115U 97084D   24301.98544517  .00008192  00000+0  24285-2 0  9997
2 25115  45.0155  43.2506 0004035 152.5917 207.5147 14.43684782407934
ORBCOMM FM09            
1 25116U 97084E   24301.79411857  .00007956  00000+0  23626-2 0  9992
2 25116  45.0158  44.9122 0004546 128.1571 231.9689 14.43621783407879
