<?xml version="1.0" encoding="UTF-8"?>
<ndm xmlns:xsi="http://www.w3.org/2001/XMLSchema-instance" xsi:noNamespaceSchemaLocation="https://sanaregistry.org/r/ndmxml_unqualified/ndmxml-2.0.0-master-2.0.xsd">
<omm id="CCSDS_OMM_VERS" version="2.0">
<header><CREATION_DATE/><ORIGINATOR/></header><body><segment><metadata><OBJECT_NAME>ORBCOMM-X</OBJECT_NAME><OBJECT_ID>1991-050C</OBJECT_ID><CENTER_NAME>EARTH</CENTER_NAME><REF_FRAME>TEME</REF_FRAME><TIME_SYSTEM>UTC</TIME_SYSTEM><MEAN_ELEMENT_THEORY>SGP4</MEAN_ELEMENT_THEORY></metadata><data><meanElements><EPOCH>2024-10-28T04:07:00.362208</EPOCH><MEAN_MOTION>14.42853460</MEAN_MOTION><ECCENTRICITY>.0004103</ECCENTRICITY><INCLINATION>98.3755</INCLINATION><RA_OF_ASC_NODE>7.1804</RA_OF_ASC_NODE><ARG_OF_PERICENTER>152.7922</ARG_OF_PERICENTER><MEAN_ANOMALY>207.3484</MEAN_ANOMALY></meanElements><tleParameters><EPHEMERIS_TYPE>0</EPHEMERIS_TYPE><CLASSIFICATION_TYPE>U</CLASSIFICATION_TYPE><NORAD_CAT_ID>21576</NORAD_CAT_ID><ELEMENT_SET_NO>999</ELEMENT_SET_NO><REV_AT_EPOCH>74887</REV_AT_EPOCH><BSTAR>.4977E-3</BSTAR><MEAN_MOTION_DOT>.1618E-4</MEAN_MOTION_DOT><MEAN_MOTION_DDOT>0</MEAN_MOTION_DDOT></tleParameters></data></segment></body></omm>
<omm id="CCSDS_OMM_VERS" version="2.0">
<header><CREATION_DATE/><ORIGINATOR/></header><body><segment><metadata><OBJECT_NAME>ORBCOMM FM01</OBJECT_NAME><OBJECT_ID>1995-017A</OBJECT_ID><CENTER_NAME>EARTH</CENTER_NAME><REF_FRAME>TEME</REF_FRAME><TIME_SYSTEM>UTC</TIME_SYSTEM><MEAN_ELEMENT_THEORY>SGP4</MEAN_ELEMENT_THEORY></metadata><data><meanElements><EPOCH>2024-10-28T05:27:49.279680</EPOCH><MEAN_MOTION>14.84263643</MEAN_MOTION><ECCENTRICITY>.000822</ECCENTRICITY><INCLINATION>69.9648</INCLINATION><RA_OF_ASC_NODE>290.3370</RA_OF_ASC_NODE><ARG_OF_PERICENTER>308.0654</ARG_OF_PERICENTER><MEAN_ANOMALY>51.9755</MEAN_ANOMALY></meanElements><tleParameters><EPHEMERIS_TYPE>0</EPHEMERIS_TYPE><CLASSIFICATION_TYPE>U</CLASSIFICATION_TYPE><NORAD_CAT_ID>23545</NORAD_CAT_ID><ELEMENT_SET_NO>999</ELEMENT_SET_NO><REV_AT_EPOCH>57836</REV_AT_EPOCH><BSTAR>.2861E-2</BSTAR><MEAN_MOTION_DOT>.24025E-3</MEAN_MOTION_DOT><MEAN_MOTION_DDOT>0</MEAN_MOTION_DDOT></tleParameters></data></segment></body></omm>
<omm id="CCSDS_OMM_VERS" version="2.0">
<header><CREATION_DATE/><ORIGINATOR/></header><body><segment><metadata><OBJECT_NAME>ORBCOMM FM02</OBJECT_NAME><OBJECT_ID>1995-017B</OBJECT_ID><CENTER_NAME>EARTH</CENTER_NAME><REF_FRAME>TEME</REF_FRAME><TIME_SYSTEM>UTC</TIME_SYSTEM><MEAN_ELEMENT_THEORY>SGP4</MEAN_ELEMENT_THEORY></metadata><data><meanElements><EPOCH>2024-10-28T07:00:39.907584</EPOCH><MEAN_MOTION>14.84091687</MEAN_MOTION><ECCENTRICITY>.0010363</ECCENTRICITY><INCLINATION>69.9675</INCLINATION><RA_OF_ASC_NODE>309.8425</RA_OF_ASC_NODE><ARG_OF_PERICENTER>307.9532</ARG_OF_PERICENTER><MEAN_ANOMALY>52.0682</MEAN_ANOMALY></meanElements><tleParameters><EPHEMERIS_TYPE>0</EPHEMERIS_TYPE><CLASSIFICATION_TYPE>U</CLASSIFICATION_TYPE><NORAD_CAT_ID>23546</NORAD_CAT_ID><ELEMENT_SET_NO>999</ELEMENT_SET_NO><REV_AT_EPOCH>57796</REV_AT_EPOCH><BSTAR>.31375E-2</BSTAR><MEAN_MOTION_DOT>.26263E-3</MEAN_MOTION_DOT><MEAN_MOTION_DDOT>0</MEAN_MOTION_DDOT></tleParameters></data></segment></body></omm>
<omm id="CCSDS_OMM_VERS" version="2.0">
<header><CREATION_DATE/><ORIGINATOR/></header><body><segment><metadata><OBJECT_NAME>ORBCOMM FM08</OBJECT_NAME><OBJECT_ID>1997-084A</OBJECT_ID><CENTER_NAME>EARTH</CENTER_NAME><REF_FRAME>TEME</REF_FRAME><TIME_SYSTEM>UTC</TIME_SYSTEM><MEAN_ELEMENT_THEORY>SGP4</MEAN_ELEMENT_THEORY></metadata><data><meanElements><EPOCH>2024-10-28T10:46:49.907136</EPOCH><MEAN_MOTION>14.44042555</MEAN_MOTION><ECCENTRICITY>.0007266</ECCENTRICITY><INCLINATION>45.0151</INCLINATION><RA_OF_ASC_NODE>39.0128</RA_OF_ASC_NODE><ARG_OF_PERICENTER>176.4230</ARG_OF_PERICENTER><MEAN_ANOMALY>183.6674</MEAN_ANOMALY></meanElements><tleParameters><EPHEMERIS_TYPE>0</EPHEMERIS_TYPE><CLASSIFICATION_TYPE>U</CLASSIFICATION_TYPE><NORAD_CAT_ID>25112</NORAD_CAT_ID><ELEMENT_SET_NO>999</ELEMENT_SET_NO><REV_AT_EPOCH>40802</REV_AT_EPOCH><BSTAR>.2506E-2</BSTAR><MEAN_MOTION_DOT>.8525E-4</MEAN_MOTION_DOT><MEAN_MOTION_DDOT>0</MEAN_MOTION_DDOT></tleParameters></data></segment></body></omm>
<omm id="CCSDS_OMM_VERS" version="2.0">
<header><CREATION_DATE/><ORIGINATOR/></header><body><segment><metadata><OBJECT_NAME>ORBCOMM FM10</OBJECT_NAME><OBJECT_ID>1997-084B</OBJECT_ID><CENTER_NAME>EARTH</CENTER_NAME><REF_FRAME>TEME</REF_FRAME><TIME_SYSTEM>UTC</TIME_SYSTEM><MEAN_ELEMENT_THEORY>SGP4</MEAN_ELEMENT_THEORY></metadata><data><meanElements><EPOCH>2024-10-28T12:55:25.264704</EPOCH><MEAN_MOTION>14.43908713</MEAN_MOTION><ECCENTRICITY>.0004167</ECCENTRICITY><INCLINATION>45.0164</INCLINATION><RA_OF_ASC_NODE>40.6055</RA_OF_ASC_NODE><ARG_OF_PERICENTER>154.6111</ARG_OF_PERICENTER><MEAN_ANOMALY>205.4945</MEAN_ANOMALY></meanElements><tleParameters><EPHEMERIS_TYPE>0</EPHEMERIS_TYPE><CLASSIFICATION_TYPE>U</CLASSIFICATION_TYPE><NORAD_CAT_ID>25113</NORAD_CAT_ID><ELEMENT_SET_NO>999</ELEMENT_SET_NO><REV_AT_EPOCH>40802</REV_AT_EPOCH><BSTAR>.23106E-2</BSTAR><MEAN_MOTION_DOT>.7824E-4</MEAN_MOTION_DOT><MEAN_MOTION_DDOT>0</MEAN_MOTION_DDOT></tleParameters></data></segment></body></omm>
<omm id="CCSDS_OMM_VERS" version="2.0">
<header><CREATION_DATE/><ORIGINATOR/></header><body><segment><metadata><OBJECT_NAME>ORBCOMM FM11</OBJECT_NAME><OBJECT_ID>1997-084C</OBJECT_ID><CENTER_NAME>EARTH</CENTER_NAME><REF_FRAME>TEME</REF_FRAME><TIME_SYSTEM>UTC</TIME_SYSTEM><MEAN_ELEMENT_THEORY>SGP4</MEAN_ELEMENT_THEORY></metadata><data><meanElements><EPOCH>2024-10-28T00:30:36.560736</EPOCH><MEAN_MOTION>14.43711213</MEAN_MOTION><ECCENTRICITY>.0004936</ECCENTRICITY><INCLINATION>45.0147</INCLINATION><RA_OF_ASC_NODE>43.3239</RA_OF_ASC_NODE><ARG_OF_PERICENTER>147.7230</ARG_OF_PERICENTER><MEAN_ANOMALY>212.3923</MEAN_ANOMALY></meanElements><tleParameters><EPHEMERIS_TYPE>0</EPHEMERIS_TYPE><CLASSIFICATION_TYPE>U</CLASSIFICATION_TYPE><NORAD_CAT_ID>25114</NORAD_CAT_ID><ELEMENT_SET_NO>999</ELEMENT_SET_NO><REV_AT_EPOCH>40793</REV_AT_EPOCH><BSTAR>.21955E-2</BSTAR><MEAN_MOTION_DOT>.7396E-4</MEAN_MOTION_DOT><MEAN_MOTION_DDOT>0</MEAN_MOTION_DDOT></tleParameters></data></segment></body></omm>
<omm id="CCSDS_OMM_VERS" version="2.0">
<header><CREATION_DATE/><ORIGINATOR/></header><body><segment><metadata><OBJECT_NAME>ORBCOMM FM12</OBJECT_NAME><OBJECT_ID>1997-084D</OBJECT_ID><CENTER_NAME>EARTH</CENTER_NAME><REF_FRAME>TEME</REF_FRAME><TIME_SYSTEM>UTC</TIME_SYSTEM><MEAN_ELEMENT_THEORY>SGP4</MEAN_ELEMENT_THEORY></metadata><data><meanElements><EPOCH>2024-10-27T23:39:02.462688</EPOCH><MEAN_MOTION>14.43684782</MEAN_MOTION><ECCENTRICITY>.0004035</ECCENTRICITY><INCLINATION>45.0155</INCLINATION><RA_OF_ASC_NODE>43.2506</RA_OF_ASC_NODE><ARG_OF_PERICENTER>152.5917</ARG_OF_PERICENTER><MEAN_ANOMALY>207.5147</MEAN_ANOMALY></meanElements><tleParameters><EPHEMERIS_TYPE>0</EPHEMERIS_TYPE><CLASSIFICATION_TYPE>U</CLASSIFICATION_TYPE><NORAD_CAT_ID>25115</NORAD_CAT_ID><ELEMENT_SET_NO>999</ELEMENT_SET_NO><REV_AT_EPOCH>40793</REV_AT_EPOCH><BSTAR>.24285E-2</BSTAR><MEAN_MOTION_DOT>.8192E-4</MEAN_MOTION_DOT><MEAN_MOTION_DDOT>0</MEAN_MOTION_DDOT></tleParameters></data></segment></body></omm>
<omm id="CCSDS_OMM_VERS" version="2.0">
<header><CREATION_DATE/><ORIGINATOR/></header><body><segment><metadata><OBJECT_NAME>ORBCOMM FM09</OBJECT_NAME><OBJECT_ID>1997-084E</OBJECT_ID><CENTER_NAME>EARTH</CENTER_NAME><REF_FRAME>TEME</REF_FRAME><TIME_SYSTEM>UTC</TIME_SYSTEM><MEAN_ELEMENT_THEORY>SGP4</MEAN_ELEMENT_THEORY></metadata><data><meanElements><EPOCH>2024-10-27T19:03:31.844448</EPOCH><MEAN_MOTION>14.43621783</MEAN_MOTION><ECCENTRICITY>.0004546</ECCENTRICITY><INCLINATION>45.0158</INCLINATION><RA_OF_ASC_NODE>44.9122</RA_OF_ASC_NODE><ARG_OF_PERICENTER>128.1571</ARG_OF_PERICENTER><MEAN_ANOMALY>231.9689</MEAN_ANOMALY></meanElements><tleParameters><EPHEMERIS_TYPE>0</EPHEMERIS_TYPE><CLASSIFICATION_TYPE>U</CLASSIFICATION_TYPE><NORAD_CAT_ID>25116</NORAD_CAT_ID><ELEMENT_SET_NO>999</ELEMENT_SET_NO><REV_AT_EPOCH>40787</REV_AT_EPOCH><BSTAR>.23626E-2</BSTAR><MEAN_MOTION_DOT>.7956E-4</MEAN_MOTION_DOT><MEAN_MOTION_DDOT>0</MEAN_MOTION_DDOT></tleParameters></data></segment></body></omm>

</ndm>
